[{"OBJECT_NAME":"YAOGAN-40 01B","OBJECT_ID":"2023-139C","EPOCH":"2026-03-09T23:20:46.305024","MEAN_MOTION":14.12430239,"ECCENTRICITY":0.00021969,"INCLINATION":85.9905,"RA_OF_ASC_NODE":304.485,"ARG_OF_PERICENTER":92.1535,"MEAN_ANOMALY":267.99,"EPHEMERIS_TYPE":0,"CLASSIFICATION_TYPE":"U","NORAD_CAT_ID":57832,"ELEMENT_SET_NO":999,"REV_AT_EPOCH":12870,"BSTAR":8.6691881e-5,"MEAN_MOTION_DOT":1.79e-6,"MEAN_MOTION_DDOT":0},{"OBJECT_NAME":"FENGYUN 1C DEB","OBJECT_ID":"1999-025BSS","EPOCH":"2026-03-09T17:20:41.800992","MEAN_MOTION":13.86544958,"ECCENTRICITY":0.01981553,"INCLINATION":98.4375,"RA_OF_ASC_NODE":80.1377,"ARG_OF_PERICENTER":46.0802,"MEAN_ANOMALY":315.6523,"EPHEMERIS_TYPE":0,"CLASSIFICATION_TYPE":"U","NORAD_CAT_ID":31386,"ELEMENT_SET_NO":999,"REV_AT_EPOCH":95067,"BSTAR":0.0028062903,"MEAN_MOTION_DOT":3.767e-5,"MEAN_MOTION_DDOT":0}]
